STARLINK-32420          
1 61931C 24207V   26107.52687500 -.00023833  00000+0 -86318-3 0  1074
2 61931  43.0038  62.1213 0001058 267.1063 142.6209 15.27592345    12
STARLINK-32354          
1 61932C 24207W   26107.53659722 -.00026727  00000+0 -96812-3 0  1076
2 61932  43.0006  66.1271 0001409 274.2480 296.9892 15.27589109    13
STARLINK-32361          
1 61933C 24207X   26107.46854167 -.00002889  00000+0 -10465-3 0  1072
2 61933  43.0011  63.0606 0000629 248.6763 298.1376 15.27579046    10
STARLINK-32500          
1 61935C 24207Z   26107.47826389 -.00004004  00000+0 -14503-3 0  1078
2 61935  43.0029  66.3051 0001472 276.6683  37.0796 15.27574973    10
STARLINK-11407 [DTC]    
1 61939C 24209A   26107.46715278 -.00064138  00000+0 -52841-3 0  1078
2 61939  53.1570 179.8806 0001199  77.2729 202.4627 15.69737173    17
STARLINK-11337 [DTC]    
1 61940C 24209B   26107.50743056 -.00009242  00000+0 -76257-4 0  1073
2 61940  53.1574 179.6249 0001439 101.8098  73.4588 15.69674015    19
STARLINK-11353 [DTC]    
1 61941C 24209C   26107.55395833 -.00008933  00000+0 -73622-4 0  1074
2 61941  53.1578 179.3392 0001124  79.4272  26.6198 15.69701702    16
STARLINK-11320 [DTC]    
1 61942C 24209D   26107.51159722 -.00041294  00000+0 -34038-3 0  1070
2 61942  53.1578 180.2259 0001183  80.2357 173.4477 15.69713850    17
STARLINK-11425 [DTC]    
1 61943C 24209E   26107.52131944 -.00040256  00000+0 -33176-3 0  1077
2 61943  53.1574 180.1212 0001256  75.3222 261.0672 15.69717764    18
STARLINK-11422 [DTC]    
1 61944C 24209F   26107.53868056 -.00027481  00000+0 -22644-3 0  1073
2 61944  53.1570 179.9784 0001193  82.9708  19.3167 15.69715088    18
STARLINK-11421 [DTC]    
1 61945C 24209G   26107.46159722 -.00066979  00000+0 -55185-3 0  1070
2 61945  53.1571 180.3012 0001192  83.3132 330.8567 15.69737295    14
STARLINK-11410 [DTC]    
1 61946C 24209H   26107.48659722 -.00054309  00000+0 -44745-3 0  1072
2 61946  53.1571 180.1205 0001220  83.7644 139.4983 15.69731474    19
STARLINK-11390 [DTC]    
1 61947C 24209J   26107.52201389 -.00039008  00000+0 -32151-3 0  1077
2 61947  53.1574 179.8903 0001215  84.4404   6.8257 15.69714262    16
STARLINK-11414 [DTC]    
1 61948C 24209K   26107.51645833 -.00060433  00000+0 -49797-3 0  1073
2 61948  53.1568 179.6903 0001241  72.6137  98.1791 15.69731590    19
STARLINK-11424 [DTC]    
1 61949C 24209L   26107.51020833 -.00038293  00000+0 -31553-3 0  1071
2 61949  53.1567 179.7782 0001150  77.5549  30.1624 15.69721074    12
STARLINK-11423 [DTC]    
1 61950C 24209M   26107.48729167 -.00068188  00000+0 -56177-3 0  1070
2 61950  53.1574 180.0073 0001212  83.0724 199.5898 15.69739443    18
STARLINK-11395 [DTC]    
1 61951C 24209N   26107.52756944 -.00024478  00000+0 -20171-3 0  1078
2 61951  53.1572 179.7481 0001133  85.5067  92.6439 15.69712805    11
STARLINK-32572          
1 61952C 24209P   26107.51229167  .00032787  00000+0  11052-2 0  1077
2 61952  53.1592 321.8762 0001129  96.4838 264.4897 15.30171220    13
STARLINK-32585          
1 61953C 24209Q   26107.51159722  .00038947  00000+0  13127-2 0  1076
2 61953  53.1575 322.2893 0001224  98.0699  49.6768 15.30171320    15
STARLINK-32574          
1 61954C 24209R   26107.53451389  .00030097  00000+0  10142-2 0  1075
2 61954  53.1572 322.2975 0001245  99.5011 116.3902 15.30183195    16
STARLINK-32583          
1 61955C 24209S   26107.50187500  .00046467  00000+0  15675-2 0  1078
2 61955  53.1580 322.2628 0001053 102.1893  26.8687 15.30140406    10
STARLINK-32273          
1 61956C 24209T   26107.52270833  .00048280  00000+0  16271-2 0  1071
2 61956  53.1593 321.8798 0001266  89.6451 299.6523 15.30170614    16
STARLINK-32359          
1 61957C 24209U   26107.52687500  .00044654  00000+0  15049-2 0  1078
2 61957  53.1584 322.0788 0001264  93.9410 207.8122 15.30171087    11
STARLINK-32566          
1 61958C 24209V   26107.55256944  .00025064  00000+0  84478-3 0  1073
2 61958  53.1595 321.7091 0001311  96.3486 114.9887 15.30177251    15
STARLINK-32499          
1 61959C 24210A   26107.46229167  .00035615  00000+0  12902-2 0  1078
2 61959  43.0020 320.4624 0001646 262.9154 123.9312 15.27553416    19
STARLINK-32372          
1 61960C 24210B   26107.51854167  .00040936  00000+0  14830-2 0  1074
2 61960  43.0005 320.2453 0001363 262.6091  31.4843 15.27550987    17
STARLINK-32452          
1 61961C 24210C   26107.48312500  .00163830  00000+0  59264-2 0  1070
2 61961  43.0011 313.6522 0001559 259.1339 145.1026 15.27539223    17
STARLINK-32458          
1 61962C 24210D   26107.47618056  .00032138  00000+0  11643-2 0  1070
2 61962  43.0001 306.4395 0001450 260.4746 241.6960 15.27554887    14
STARLINK-32487          
1 61963C 24210E   26107.46923611  .00030972  00000+0  11220-2 0  1071
2 61963  43.0011 320.9044 0001516 266.2258 313.6830 15.27557273    11
STARLINK-32513          
1 61964C 24210F   26107.49979167  .00040141  00000+0  14536-2 0  1074
2 61964  43.0005 306.1546 0001369 263.5934  72.2427 15.27564630    10
STARLINK-32514          
1 61965C 24210G   26107.46993056  .00040021  00000+0  14501-2 0  1074
2 61965  43.0015 313.7768 0001444 261.1420  49.2354 15.27545762    18
STARLINK-32498          
1 61966C 24210H   26107.52756944  .00029325  00000+0  10620-2 0  1077
2 61966  43.0007 305.8116 0001595 263.2013 303.3838 15.27570098    18
STARLINK-32518          
1 61967C 24210J   26107.51298611  .00039762  00000+0  14402-2 0  1077
2 61967  43.0018 313.6814 0001757 267.8309 138.2645 15.27557294    15
STARLINK-32471          
1 61968C 24210K   26107.47270833  .00039733  00000+0  14392-2 0  1075
2 61968  43.0002 313.6312 0001347 263.1676 119.0894 15.27556511    17
STARLINK-32450          
1 61969C 24210L   26107.51923611  .00035734  00000+0  12943-2 0  1077
2 61969  43.0004 313.4150 0001393 263.1558 354.0425 15.27560088    13
STARLINK-32613          
1 61970C 24210M   26107.51506944  .00043354  00000+0  15700-2 0  1076
2 61970  43.0025 320.8854 0001665 264.3564 108.8431 15.27562013    15
STARLINK-32610          
1 61971C 24210N   26107.46645833  .00029040  00000+0  10522-2 0  1075
2 61971  43.0025 321.0559 0001472 262.1994 245.8196 15.27551748    13
STARLINK-32612          
1 61972C 24210P   26107.53729167  .00032341  00000+0  11707-2 0  1071
2 61972  43.0026 320.7072 0001457 260.5467 256.2559 15.27580161    11
STARLINK-32601          
1 61973C 24210Q   26107.53243056  .00041513  00000+0  15037-2 0  1071
2 61973  43.0012 320.1139 0001487 260.8243 130.9604 15.27556330    13
STARLINK-32593          
1 61974C 24210R   26107.46298611  .00035062  00000+0  12702-2 0  1079
2 61974  43.0024 321.2664 0001497 262.7225 148.3689 15.27554868    14
STARLINK-32586          
1 61975C 24210S   26107.51368056  .00034601  00000+0  12537-2 0  1071
2 61975  43.0007 320.6037 0001437 262.1908 223.6491 15.27548854    15
STARLINK-32611          
1 61976C 24210T   26107.51993056  .00032591  00000+0  11806-2 0  1070
2 61976  43.0004 320.5188 0001467 264.2917 277.1714 15.27558180    10
STARLINK-32607          
1 61977C 24210U   26107.54354167  .00034253  00000+0  12410-2 0  1077
2 61977  43.0021 320.5678 0001471 262.7553 330.8896 15.27552064    11
STARLINK-32606          
1 61978C 24210V   26107.49493056  .00032498  00000+0  11773-2 0  1073
2 61978  43.0011 320.4525 0001381 265.4218 223.3092 15.27554898    10
STARLINK-32578          
1 61979C 24210W   26107.53104167  .00041409  00000+0  14997-2 0  1074
2 61979  43.0002 320.2706 0001403 261.9062  58.5613 15.27561382    16
STARLINK-32517          
1 61980C 24210X   26107.49701389  .00036976  00000+0  13395-2 0  1074
2 61980  43.0025 321.0381 0001451 258.5659 354.0209 15.27554231    18
STARLINK-32522          
1 61981C 24210Y   26107.55326389  .00037355  00000+0  13533-2 0  1071
2 61981  43.0007 320.2795 0001498 263.4114 122.8151 15.27552856    19
STARLINK-32560          
1 61982C 24210Z   26107.50395833  .00095817  00000+0  34670-2 0  1079
2 61982  43.0005 320.3733 0001536 258.1235 294.4454 15.27564070    12
STARLINK-11433 [DTC]    
1 62008C 24213A   26107.53034722 -.00071393  00000+0 -58810-3 0  1070
2 62008  53.1572 209.6186 0001211  83.3466  69.0451 15.69744646    16
STARLINK-11262 [DTC]    
1 62009C 24213B   26107.47409722 -.00062023  00000+0 -51084-3 0  1076
2 62009  53.1579 210.3532 0001212  88.1431 244.3098 15.69743003    15
STARLINK-11326 [DTC]    
1 62010C 24213C   26107.53729167 -.00051378  00000+0 -42331-3 0  1079
2 62010  53.1577 209.8104 0001205  86.4956 354.2229 15.69729634    19
STARLINK-11330 [DTC]    
1 62011C 24213D   26107.53729167 -.00075527  00000+0 -62224-3 0  1075
2 62011  53.1576 209.9833 0001160  83.7302 273.7691 15.69743320    10
STARLINK-11363 [DTC]    
1 62012C 24213E   26107.48868056 -.00071896  00000+0 -59223-3 0  1071
2 62012  53.1578 209.9392 0001112  83.9812 137.3438 15.69745255    11
STARLINK-11377 [DTC]    
1 62013C 24213F   26107.50604167 -.00054239  00000+0 -44676-3 0  1074
2 62013  53.1575 209.8017 0001117  79.3292 267.8909 15.69737787    11
STARLINK-11385 [DTC]    
1 62014C 24213G   26107.52340278 -.00068348  00000+0 -56303-3 0  1073
2 62014  53.1573 209.9955 0001134  79.9799 226.7222 15.69742595    14
STARLINK-11396 [DTC]    
1 62015C 24213H   26107.48868056 -.00041734  00000+0 -34378-3 0  1076
2 62015  53.1573 209.7659 0001185  76.8933 227.6458 15.69729498    14
STARLINK-11393 [DTC]    
1 62016C 24213J   26107.53520833 -.00077391  00000+0 -63752-3 0  1077
2 62016  53.1578 209.4823 0001249  77.6022 157.7552 15.69746728    12
STARLINK-11343 [DTC]    
1 62017C 24213K   26107.49701389 -.00049793  00000+0 -41022-3 0  1071
2 62017  53.1576 210.0691 0001153  85.9441  99.2928 15.69730387    14
STARLINK-11411 [DTC]    
1 62018C 24213L   26107.46437500 -.00065360  00000+0 -53841-3 0  1070
2 62018  53.1579 210.1176 0001080  84.7335 331.4249 15.69741302    11
